NSS-11                  
1 26554U 00059A   26176.13211566  .00000033  00000+0  00000+0 0  9997
2 26554   2.1474  81.3054 0003089   5.0654  50.4554  1.00272230 41378
AMC-6                   
1 26580U 00067A   26176.14182236  .00000098  00000+0  00000+0 0  9998
2 26580   0.1728  83.4233 0003879  19.7642  86.0978  1.00271993 93978
AMC-15                  
1 28446U 04041A   26176.14768159 -.00000079  00000+0  00000+0 0  9991
2 28446   0.0197  27.3766 0002489  57.6306 136.3920  1.00272117 79386
NSS-10                  
1 28526U 05003A   26176.19317019 -.00000248  00000+0  00000+0 0  9997
2 28526   6.4695  70.3593 0003035  21.6481 213.4041  1.00271142 53231
ASTRA 1KR               
1 29055U 06012A   26176.22405644  .00000129  00000+0  00000+0 0  9999
2 29055   0.4949  83.2466 0003673   7.1151 282.6772  1.00274821 45774
ASTRA 1L                
1 31306U 07016A   26176.20754763 -.00000176  00000+0  00000+0 0  9996
2 31306   1.3427  81.5299 0005630  17.0991 224.9403  1.00270706 45069
ASTRA 4A                
1 32299U 07057A   26176.23516927  .00000042  00000+0  00000+0 0  9995
2 32299   0.0218 314.1062 0002560 138.6668 270.0655  1.00270681 51721
ASTRA 1M                
1 33436U 08057A   26176.22405644  .00000131  00000+0  00000+0 0  9991
2 33436   0.3174  82.6392 0005250  28.6294 262.1801  1.00276097 45819
NSS-9                   
1 33749U 09008A   26176.13350233  .00000080  00000+0  00000+0 0  9991
2 33749   1.2826  82.5957 0002268 355.8284  65.9830  1.00273673 63601
SES-7 (PROTOSTAR 2)     
1 34941U 09027A   26175.97608461 -.00000336  00000+0  00000+0 0  9992
2 34941   0.0327  63.0556 0000776 106.5511 203.1349  1.00270193 62709
NSS-12                  
1 36032U 09058A   26176.25112470  .00000081  00000+0  00000+0 0  9997
2 36032   0.0786 276.4175 0004967 146.1100 358.2708  1.00272206 60995
SES-1                   
1 36516U 10016A   26175.57810682 -.00000106  00000+0  00000+0 0  9993
2 36516   0.0166 323.6524 0002876 126.1578 290.0329  1.00272029 59107
ASTRA 3B                
1 36581U 10021A   26176.22405644  .00000146  00000+0  00000+0 0  9995
2 36581   1.4899  83.4551 0004084  13.5437 280.5425  1.00274610 58944
SES-3                   
1 37748U 11035A   26175.93428808 -.00000094  00000+0  00000+0 0  9994
2 37748   1.3472  83.0168 0002612   4.9457  58.4628  1.00272076 54674
ASTRA 1N                
1 37775U 11041A   26174.93243215  .00000126  00000+0  00000+0 0  9992
2 37775   0.0769  33.8693 0006561  68.6280 164.4560  1.00271449 44599
SES-2                   
1 37809U 11049A   26175.58096683 -.00000187  00000+0  00000+0 0  9993
2 37809   0.0797  95.6351 0002941 355.9740 303.2612  1.00271305 54038
QUETZSAT 1              
1 37826U 11054A   26175.51162416 -.00000233  00000+0  00000+0 0  9991
2 37826   0.0193 314.3940 0002880 141.8709 283.5842  1.00271400 49946
SES-4                   
1 38087U 12007A   26175.37997323 -.00000160  00000+0  00000+0 0  9996
2 38087   0.0250  33.6116 0002512  64.4268 289.2952  1.00276512 52294
SES-5                   
1 38652U 12036A   26175.81307972  .00000043  00000+0  00000+0 0  9999
2 38652   0.0448 318.0698 0002053 132.6249 119.9515  1.00272324 44532
ASTRA 2F                
1 38778U 12051A   26176.21850447  .00000160  00000+0  00000+0 0  9990
2 38778   0.0864 258.6271 0002467 272.8185 208.7814  1.00275742 41212
SES-6                   
1 39172U 13026A   26176.16051396 -.00000252  00000+0  00000+0 0  9995
2 39172   0.0161   4.4481 0002825  93.6299 192.5158  1.00271378 47807
O3B FM5                 
1 39188U 13031A   26176.03560321 -.00000022  00000+0  00000+0 0  9992
2 39188   0.0974 341.7206 0002907  97.8255 280.4859  5.00115676237434
O3B FM4                 
1 39189U 13031B   26174.15613176 -.00000022  00000+0  00000+0 0  9991
2 39189   0.0419 346.4879 0005050  94.3599 279.2079  5.00115267237348
O3B FM2                 
1 39190U 13031C   26176.02064379 -.00000022  00000+0  00000+0 0  9996
2 39190   0.0366 341.6705 0002759 108.3571 270.0031  5.00116086237500
O3B PFM                 
1 39191U 13031D   26176.03476356 -.00000022  00000+0  00000+0 0  9990
2 39191   0.0674 350.4561 0005348  95.8705 273.7337  5.00116091237063
ASTRA 2E                
1 39285U 13056A   26176.21850447  .00000160  00000+0  00000+0 0  9990
2 39285   0.0643 326.7755 0002551 134.1647 279.5695  1.00270139 46495
SES-8                   
1 39460U 13071A   26175.90487203 -.00000260  00000+0  00000+0 0  9995
2 39460   0.0361 276.9393 0003005 178.3481 238.5106  1.00270781 44507
ASTRA 5B                
1 39617U 14011B   26176.22405644  .00000147  00000+0  00000+0 0  9992
2 39617   0.0551 321.7968 0002188 114.1901 301.5057  1.00271711 44741
O3B FM3                 
1 40079U 14038A   26175.50177160 -.00000022  00000+0  00000+0 0  9997
2 40079   0.0479 353.5069 0002258 154.2758 212.2301  5.00115749213416
O3B FM7                 
1 40080U 14038B   26176.04756099 -.00000022  00000+0  00000+0 0  9993
2 40080   0.0466 344.5823 0003752  81.6001 293.8562  5.00115731218270
O3B FM6                 
1 40081U 14038C   26175.07508707 -.00000022  00000+0  00000+0 0  9997
2 40081   0.0468 350.3198 0002642 101.3254 268.3839  5.00115795218173
O3B FM8                 
1 40082U 14038D   26176.12778839 -.00000022  00000+0  00000+0 0  9990
2 40082   0.0467 349.0024 0002768 106.6043 264.4240  5.00116132218347
O3B FM10                
1 40348U 14083A   26175.75524385 -.00000022  00000+0  00000+0 0  9998
2 40348   0.0366 329.7129 0002659 122.3528 267.9638  5.00115365210273
O3B FM11                
1 40349U 14083B   26175.96778114 -.00000022  00000+0  00000+0 0  9993
2 40349   0.0554 353.5554 0002660  83.4078 283.0657  5.00115612210308
O3B FM12                
1 40350U 14083C   26176.19467895 -.00000022  00000+0  00000+0 0  9992
2 40350   0.0545 353.6302 0002525  97.9831 268.4149  5.00116010210327
O3B FM9                 
1 40351U 14083D   26175.82172765 -.00000022  00000+0  00000+0 0  9991
2 40351   0.0563 352.9071 0002698  98.9456 268.1773  5.00116020210453
ASTRA 2G                
1 40364U 14089A   26176.21850447  .00000159  00000+0  00000+0 0  9995
2 40364   0.0501  19.1531 0004859  52.8079 308.2286  1.00272501 42049
SES-9                   
1 41380U 16013A   26175.40578359 -.00000337  00000+0  00000+0 0  9991
2 41380   0.0118 330.6401 0002441 115.0310  81.2676  1.00271753 37519
SES-10                  
1 42432U 17017A   26175.37104652 -.00000265  00000+0  00000+0 0  9992
2 42432   0.0221  42.3518 0002919  53.7505 243.0944  1.00269670 33824
SES-15                  
1 42709U 17026A   26175.50131078  .00000068  00000+0  00000+0 0  9996
2 42709   0.0193 335.4736 0000659  95.5096 252.9752  1.00268280  7503
SES-11 (ECHOSTAR 105)   
1 42967U 17063A   26176.14776825 -.00000080  00000+0  00000+0 0  9994
2 42967   0.0348 300.6587 0002928 150.9568 129.9261  1.00272939 31804
SES-14                  
1 43175U 18012B   26175.51751752 -.00000270  00000+0  00000+0 0  9994
2 43175   0.0183  32.4366 0001157  58.9659 320.0654  1.00271424  7091
O3B FM15                
1 43231U 18024A   26175.68864545 -.00000022  00000+0  00000+0 0  9998
2 43231   0.0518   1.4690 0002626  90.3228 268.2373  5.00115831151405
O3B FM16                
1 43232U 18024B   26174.34174209 -.00000022  00000+0  00000+0 0  9992
2 43232   0.0515   6.1907 0002644  83.3089 270.5293  5.00116024151258
O3B FM14                
1 43233U 18024C   26176.18156458 -.00000022  00000+0  00000+0 0  9993
2 43233   0.0503   6.8909 0002877  88.8506 264.2905  5.00115736151357
O3B FM13                
1 43234U 18024D   26171.25057030 -.00000024  00000+0  00000+0 0  9995
2 43234   0.0547 261.1101 0023783  59.3674  39.3467  5.00080344151219
SES-12                  
1 43488U 18049A   26175.90487203 -.00000260  00000+0  00000+0 0  9990
2 43488   0.0123   7.4810 0000485 300.7127  25.6053  1.00271664 29494
O3B FM20                
1 44112U 19020A   26173.80893610 -.00000022  00000+0  00000+0 0  9991
2 44112   0.0522 357.9628 0002423  85.4857 276.5775  5.00115633131852
O3B FM19                
1 44113U 19020B   26176.03475091 -.00000022  00000+0  00000+0 0  9999
2 44113   0.0761 338.5355 0003888  95.7880 285.7186  5.00116038131832
O3B FM17                
1 44114U 19020C   26175.51524627 -.00000022  00000+0  00000+0 0  9992
2 44114   0.0343   8.8392 0002591  83.2417 267.9477  5.00115634131897
O3B FM18                
1 44115U 19020D   26176.06125213 -.00000022  00000+0  00000+0 0  9992
2 44115   0.0526 357.6354 0002774  96.3971 265.9984  5.00115421132040
SES-17                  
1 49332U 21095A   26175.72735961 -.00000264  00000+0  00000+0 0  9990
2 49332   0.0263  42.7710 0001213  46.1925  18.6596  1.00269620 17930
SES-22                  
1 52933U 22071A   26175.71323287  .00000113  00000+0  00000+0 0  9991
2 52933   0.0187 300.2800 0001595 144.3766 305.9843  1.00274810  7590
SES-20                  
1 53960U 22123A   26175.19760890 -.00000093  00000+0  00000+0 0  9995
2 53960   0.0251  65.9784 0002053  31.5385 142.8634  1.00269292 13606
SES-21                  
1 53961U 22123B   26174.43155243  .00000000  00000+0  00000+0 0  9999
2 53961   0.0387  19.7009 0001007  64.8583 211.4828  1.00271938  7275
O3B MPOWER F1           
1 54755U 22174A   26175.09829279 -.00000022  00000+0  00000+0 0  9992
2 54755   0.0514 341.1180 0006488 124.5404 179.9972  5.00115017 65704
O3B MPOWER F2           
1 54756U 22174B   26175.90589067 -.00000022  00000+0  00000+0 0  9991
2 54756   0.0472 340.6729 0005848 108.8948 270.4984  5.00115116 65821
SES-18                  
1 55970U 23038A   26175.19749707 -.00000094  00000+0  00000+0 0  9999
2 55970   0.0410 275.0937 0000513 233.5125  91.7362  1.00271139 12179
SES-19                  
1 55971U 23038B   26176.28441846  .00000098  00000+0  00000+0 0  9997
2 55971   0.0176 315.8434 0001929 139.2636 145.7893  1.00271954 12179
O3B MPOWER F4           
1 56367U 23059A   26176.17003199 -.00000022  00000+0  00000+0 0  9991
2 56367   0.0632 353.3100 0007663 106.5132 260.2626  5.00115609 58997
O3B MPOWER F3           
1 56368U 23059B   26176.00331303 -.00000022  00000+0  00000+0 0  9995
2 56368   0.0641 352.7875 0006718  99.1968 268.0918  5.00116560 55123
O3B MPOWER F5           
1 58346U 23175A   26175.90440023 -.00000022  00000+0  00000+0 0  9990
2 58346   0.0499  10.9482 0005263 101.1171 247.9898  5.00116026 49812
O3B MPOWER F6           
1 58347U 23175B   26175.60508972 -.00000022  00000+0  00000+0 0  9996
2 58347   0.0528   2.8563 0004492  86.8662 270.3279  5.00115926 48723
ASTRA 1P (SES-24)       
1 60086U 24115A   26175.90625000  .00000129  00000+0  00000+0 0  9996
2 60086   0.0595 340.0652 0000828  24.8630 253.5862  1.00274964  7272
O3B MPOWER F7           
1 62362U 24244A   26175.47157927 -.00000022  00000+0  00000+0 0  9991
2 62362   0.0674 346.8339 0006024 102.8971 270.3371  5.00115323 26892
O3B MPOWER F8           
1 62363U 24244B   26175.63840910 -.00000022  00000+0  00000+0 0  9991
2 62363   0.0151 340.1029 0005899 102.6567 277.3064  5.00115185 21240
O3B MPOWER F9           
1 64866U 25153A   26176.17149217 -.00000022  00000+0  00000+0 0  9993
2 64866   0.0593   8.6870 0006482 105.7992 245.5806  5.00115800 19955
O3B MPOWER F10          
1 64867U 25153B   26175.33794614 -.00000022  00000+0  00000+0 0  9998
2 64867   0.0569   4.9434 0001948 248.8101 106.2240  5.00114950 22399
